{"spkid": "50759316", "covariance": {"epoch": "2458278.5", "labels": ["e", "q", "tp", "node", "peri", "i"], "data": [["9.065589510516056E-14", "-8.368325105615083E-14", "5.899848017405934E-12", "7.791246076287016E-12", "-1.12207129492176E-11", "4.00142605571535E-12"], ["-8.368325105615083E-14", "7.724751947874828E-14", "-5.447849145277844E-12", "-7.180956280320725E-12", "1.034646210973747E-11", "-3.689603603862948E-12"], ["5.899848017405934E-12", "-5.447849145277844E-12", "6.354296815819123E-10", "8.158814766241742E-10", "-9.115427419326976E-10", "2.932837473000386E-10"], ["7.791246076287016E-12", "-7.180956280320725E-12", "8.158814766241742E-10", "4.483354069033766E-9", "-4.608410434182251E-9", "1.608230706900319E-9"], ["-1.12207129492176E-11", "1.034646210973747E-11", "-9.115427419326976E-10", "-4.608410434182251E-9", "4.933129565572706E-9", "-1.738183541984773E-9"], ["4.00142605571535E-12", "-3.689603603862948E-12", "2.932837473000386E-10", "1.608230706900319E-9", "-1.738183541984773E-9", "6.734927834685496E-10"]], "elements": [{"sigma": 3.01091174073835e-07, "name": "e", "value": ".5223771688153719", "title": "eccentricity", "units": null, "label": "e"}, {"name": "q", "sigma": 2.77934379807084e-07, "value": ".4417709636220191", "title": "perihelion distance", "units": "au", "label": "q"}, {"label": "tp", "value": "2458213.172948952630", "title": "time of perihelion passage", "units": "TDB", "name": "tp", "sigma": 2.5207730591664e-05}, {"title": "longitude of the ascending node", "value": "153.3274773050556", "units": "deg", "name": "om", "sigma": 6.69578529302857e-05, "label": "node"}, {"label": "peri", "units": "deg", "title": "argument of perihelion", "value": "55.62096696891136", "sigma": 7.02362411122115e-05, "name": "w"}, {"title": "inclination", "value": "5.151115182804114", "units": "deg", "sigma": 2.59517395075658e-05, "name": "i", "label": "i"}]}, "elements": [{"label": "e", "units": null, "value": ".5223890742630832", "title": "eccentricity", "sigma": "3.0095E-7", "name": "e"}, {"label": "a", "title": "semi-major axis", "value": ".9246982879298328", "units": "au", "sigma": "1.648E-9", "name": "a"}, {"units": "au", "value": ".4416460053255095", "title": "perihelion distance", "name": "q", "sigma": "2.7807E-7", "label": "q"}, {"label": "i", "sigma": "2.596E-5", "name": "i", "value": "5.148560526997486", "title": "inclination; angle with respect to x-y ecliptic plane", "units": "deg"}, {"units": "deg", "title": "longitude of the ascending node", "value": "153.25035243952", "name": "om", "sigma": "6.7165E-5", "label": "node"}, {"value": "55.64364567062006", "title": "argument of perihelion", "units": "deg", "name": "w", "sigma": "7.0391E-5", "label": "peri"}, {"name": "ma", "sigma": "2.9806E-5", "units": "deg", "title": "mean anomaly", "value": "69.99042922378705", "label": "M"}, {"label": "tp", "sigma": "2.689E-5", "name": "tp", "units": "TDB", "value": "2461137.355625827572", "title": "time of perihelion passage"}, {"units": "d", "title": "sidereal orbital period", "value": "324.7869023547609", "sigma": "8.6824E-7", "name": "per", "label": "period"}, {"value": "1.108419081526804", "title": "mean motion", "units": "deg/d", "name": "n", "sigma": "2.9631E-9", "label": "n"}, {"label": "Q", "sigma": "2.5089E-9", "name": "ad", "units": "au", "title": "aphelion distance", "value": "1.407750570534156"}], "epoch": "2461200.5"}